NORAD_CAT_ID,OBJECT_NAME,OBJECT_TYPE,EPOCH,MEAN_MOTION,ECCENTRICITY,INCLINATION,RA_OF_ASC_NODE,ARG_OF_PERICENTER,MEAN_ANOMALY,BSTAR,MEAN_MOTION_DOT,MEAN_MOTION_DDOT,TLE_LINE0,TLE_LINE1,TLE_LINE2,SEMIMAJOR_AXIS,PERIOD,APOGEE,PERIGEE,DECAYED
52103.0,STARLINK-3705,PAYLOAD,2023-01-07 08:34:13,15.0883335,0.0001902,53.2146,234.5795,52.9185,307.1981,1.3578e-05,-7.2e-07,0.0,0 STARLINK-3705,1 52103U 22029R   23007.35710518 -.00000072  00000-0  13578-4 0  9996,2 52103  53.2146 234.5795 0001902  52.9185 307.1981 15.08833350 46062,6917.901,95.438,541.082,538.45,0.0
52103.0,STARLINK-3705,PAYLOAD,2023-01-07 21:17:19,15.08827269,0.0001994,53.2141,232.2006,55.2865,304.8315,0.00014071,1.951e-05,0.0,0 STARLINK-3705,1 52103U 22029R   23007.88703384  .00001951  00000-0  14071-3 0  9991,2 52103  53.2141 232.2006 0001994  55.2865 304.8315 15.08827269 46145,6917.919,95.438,541.164,538.405,0.0
52103.0,STARLINK-3705,PAYLOAD,2023-01-08 00:28:06,15.08821013,0.0001739,53.2143,231.6059,53.6619,306.4533,6.311600000000001e-05,7.16e-06,0.0,0 STARLINK-3705,1 52103U 22029R   23008.01951793  .00000716  00000-0  63116-4 0  9999,2 52103  53.2143 231.6059 0001739  53.6619 306.4533 15.08821013 46167,6917.938,95.439,541.006,538.6,0.0
52103.0,STARLINK-3705,PAYLOAD,2023-01-08 08:25:01,15.088399300000004,0.0001527,53.2144,230.1209,36.3542,323.7553,0.00045317,6.932e-05,0.0,0 STARLINK-3705,1 52103U 22029R   23008.35071231  .00006932  00000-0  45317-3 0  9994,2 52103  53.2144 230.1209 0001527  36.3542 323.7553 15.08839930 46214,6917.880999999999,95.438,540.802,538.689,0.0
52103.0,STARLINK-3705,PAYLOAD,2023-01-08 17:57:20,15.08844153,0.0001503,53.2147,228.3348,53.4461,306.6670000000001,0.00047873,7.340000000000001e-05,0.0,0 STARLINK-3705,1 52103U 22029R   23008.74815355  .00007340  00000-0  47873-3 0  9993,2 52103  53.2147 228.3348 0001503  53.4461 306.6670 15.08844153 46273,6917.868,95.437,540.7719999999998,538.693,0.0
52103.0,STARLINK-3705,PAYLOAD,2023-01-09 14:37:20,15.08850644,0.0001419,53.2146,224.4674,58.4316,301.6815,0.00033293,5.016e-05,0.0,0 STARLINK-3705,1 52103U 22029R   23009.60926858  .00005016  00000-0  33293-3 0  9999,2 52103  53.2146 224.4674 0001419  58.4316 301.6815 15.08850644 46404,6917.848000000001,95.437,540.694,538.731,0.0
52103.0,STARLINK-3705,PAYLOAD,2023-01-09 20:58:53,15.08845495,0.0001595,53.2142,223.2799,49.7575,310.3556,0.00019503,2.818e-05,0.0,0 STARLINK-3705,1 52103U 22029R   23009.87422954  .00002818  00000-0  19503-3 0  9991,2 52103  53.2142 223.2799 0001595  49.7575 310.3556 15.08845495 46441,6917.864000000001,95.437,540.832,538.625,0.0
52103.0,STARLINK-3705,PAYLOAD,2023-01-10 00:09:39,15.08840868,0.0001573,53.2143,222.6852,50.1892,309.9238,0.00025231,3.73e-05,0.0,0 STARLINK-3705,1 52103U 22029R   23010.00671119  .00003730  00000-0  25231-3 0  9996,2 52103  53.2143 222.6852 0001573  50.1892 309.9238 15.08840868 46461,6917.8780000000015,95.437,540.831,538.655,0.0
52103.0,STARLINK-3705,PAYLOAD,2023-01-10 14:28:08,15.08836344,0.0001705,53.214,220.0088,54.6219,305.4932,-9.4251e-05,-1.788e-05,0.0,0 STARLINK-3705,1 52103U 22029R   23010.60287200 -.00001788  00000-0 -94251-4 0  9998,2 52103  53.2140 220.0088 0001705  54.6219 305.4932 15.08836344 46556,6917.892,95.438,540.936,538.577,0.0
52103.0,STARLINK-3705,PAYLOAD,2023-01-10 22:25:03,15.08840732,0.0001718,53.215,218.522,55.9266,304.1889,2.117e-05,4.9e-07,0.0,0 STARLINK-3705,1 52103U 22029R   23010.93407352  .00000049  00000-0  21170-4 0  9993,2 52103  53.2150 218.5220 0001718  55.9266 304.1889 15.08840732 46606,6917.8780000000015,95.438,540.932,538.555,0.0
52103.0,STARLINK-3705,PAYLOAD,2023-01-11 09:32:46,15.0883698,0.0001961,53.2154,216.4401,57.5853,302.5328,-7.555100000000001e-05,-1.49e-05,0.0,0 STARLINK-3705,1 52103U 22029R   23011.39775861 -.00001490  00000-0 -75551-4 0  9992,2 52103  53.2154 216.4401 0001961  57.5853 302.5328 15.08836980 46675,6917.89,95.438,541.111,538.398,0.0
52103.0,STARLINK-3705,PAYLOAD,2023-01-11 15:54:19,15.08832492,0.0001769,53.2157,215.2507,59.8873,300.2294,-2.0431e-05,-6.13e-06,0.0,0 STARLINK-3705,1 52103U 22029R   23011.66272032 -.00000613  00000-0 -20431-4 0  9997,2 52103  53.2157 215.2507 0001769  59.8873 300.2294 15.08832492 46711,6917.903,95.438,540.992,538.545,0.0
52103.0,STARLINK-3705,PAYLOAD,2023-01-11 20:40:28,15.08834989,0.0001744,53.2157,214.3587,56.6023,303.5136,1.6835e-05,-2e-07,0.0,0 STARLINK-3705,1 52103U 22029R   23011.86143883 -.00000020  00000-0  16835-4 0  9994,2 52103  53.2157 214.3587 0001744  56.6023 303.5136 15.08834989 46741,6917.896,95.438,540.967,538.554,0.0
52103.0,STARLINK-3705,PAYLOAD,2023-01-12 22:06:38,15.08836143,0.0001776,53.2161,209.6006,59.8163,300.3005,7.2189e-05,8.61e-06,0.0,0 STARLINK-3705,1 52103U 22029R   23012.92128189  .00000861  00000-0  72189-4 0  9990,2 52103  53.2161 209.6006 0001776  59.8163 300.3005 15.08836143 46906,6917.892,95.438,540.986,538.529,0.0
52103.0,STARLINK-3705,PAYLOAD,2023-01-13 12:25:06,15.08837173,0.0001735,53.2163,206.9246,60.5279,299.5886,0.00014225,1.976e-05,0.0,0 STARLINK-3705,1 52103U 22029R   23013.51744179  .00001976  00000-0  14225-3 0  9993,2 52103  53.2163 206.9246 0001735  60.5279 299.5886 15.08837173 46995,6917.889,95.438,540.9540000000001,538.554,0.0
52103.0,STARLINK-3705,PAYLOAD,2023-01-13 18:46:39,15.08839573,0.0001706,53.2165,205.7351,60.8991,299.2172,0.00016209,2.293e-05,0.0,0 STARLINK-3705,1 52103U 22029R   23013.78240084  .00002293  00000-0  16209-3 0  9995,2 52103  53.2165 205.7351 0001706  60.8991 299.2172 15.08839573 47030,6917.882,95.438,540.927,538.567,0.0
52103.0,STARLINK-3705,PAYLOAD,2023-01-14 05:54:21,15.08843844,0.0001659,53.2167,203.6539,60.2094,299.9063,0.00013967,1.936e-05,0.0,0 STARLINK-3705,1 52103U 22029R   23014.24607935  .00001936  00000-0  13967-3 0  9990,2 52103  53.2167 203.6539 0001659  60.2094 299.9063 15.08843844 47102,6917.869000000001,95.437,540.881,538.586,0.0
52103.0,STARLINK-3705,PAYLOAD,2023-01-15 12:06:41,15.08841511,0.0001774999999999,53.2162,198.0039,62.8582,297.2591,5.1648e-05,5.34e-06,0.0,0 STARLINK-3705,1 52103U 22029R   23015.50464311  .00000534  00000-0  51648-4 0  9991,2 52103  53.2162 198.0039 0001775  62.8582 297.2591 15.08841511 47294,6917.876,95.437,540.969,538.513,0.0
52103.0,STARLINK-3705,PAYLOAD,2023-01-15 18:28:13,15.08836498,0.0001573,53.2166,196.8133,66.968,293.1478,0.00019042,2.744e-05,0.0,0 STARLINK-3705,1 52103U 22029R   23015.76960273  .00002744  00000-0  19042-3 0  9993,2 52103  53.2166 196.8133 0001573  66.9680 293.1478 15.08836498 47331,6917.891,95.438,540.844,538.668,0.0
52103.0,STARLINK-3705,PAYLOAD,2023-01-16 11:57:28,15.08838926,0.0001564,53.2168,193.5429,65.2879,294.8276,6.0481000000000006e-05,6.75e-06,0.0,0 STARLINK-3705,1 52103U 22029R   23016.49824326  .00000675  00000-0  60481-4 0  9997,2 52103  53.2168 193.5429 0001564  65.2879 294.8276 15.08838926 47441,6917.884,95.438,540.831,538.6669999999999,0.0
52103.0,STARLINK-3705,PAYLOAD,2023-01-16 18:19:00,15.0884121,0.0001565999999999,53.2167,192.3532,67.5563,292.5595,6.8086e-05,7.96e-06,0.0,0 STARLINK-3705,1 52103U 22029R   23016.76320128  .00000796  00000-0  68086-4 0  9991,2 52103  53.2167 192.3532 0001566  67.5563 292.5595 15.08841210 47482,6917.877,95.437,540.825,538.658,0.0
52103.0,STARLINK-3705,PAYLOAD,2023-01-17 11:48:15,15.08832311,0.000167,53.2168,189.0825,72.4571,287.6604,-4.899e-06,-3.66e-06,0.0,0 STARLINK-3705,1 52103U 22029R   23017.49185021 -.00000366  00000-0 -48990-5 0  9991,2 52103  53.2168 189.0825 0001670  72.4571 287.6604 15.08832311 47591,6917.904,95.438,540.924,538.614,0.0
52103.0,STARLINK-3705,PAYLOAD,2023-01-17 18:09:47,15.08840123,0.0001604,53.2169,187.8932,70.7218,289.3948,5.1834e-05,5.37e-06,0.0,0 STARLINK-3705,1 52103U 22029R   23017.75680423  .00000537  00000-0  51834-4 0  9994,2 52103  53.2169 187.8932 0001604  70.7218 289.3948 15.08840123 47638,6917.88,95.438,540.855,538.635,0.0
52103.0,STARLINK-3705,PAYLOAD,2023-01-18 13:14:25,15.08838197,0.0001571,53.2173,184.3252,70.0388,290.0773,6.3872e-05,7.29e-06,0.0,0 STARLINK-3705,1 52103U 22029R   23018.55168719  .00000729  00000-0  63872-4 0  9990,2 52103  53.2173 184.3252 0001571  70.0388 290.0773 15.08838197 47750,6917.886,95.438,540.8380000000001,538.664,0.0
52103.0,STARLINK-3705,PAYLOAD,2023-01-18 14:49:48,15.08839883,0.000155,53.2174,184.0279,70.5633,289.5526,7.9402e-05,9.76e-06,0.0,0 STARLINK-3705,1 52103U 22029R   23018.61792594  .00000976  00000-0  79402-4 0  9991,2 52103  53.2174 184.0279 0001550  70.5633 289.5526 15.08839883 47765,6917.880999999999,95.438,540.818,538.673,0.0
52103.0,STARLINK-3705,PAYLOAD,2023-01-19 09:54:26,15.08832397,0.0001475,53.2157,180.4615,82.1508,277.9652,9.1025e-05,1.161e-05,0.0,0 STARLINK-3705,1 52103U 22029R   23019.41281166  .00001161  00000-0  91025-4 0  9990,2 52103  53.2157 180.4615 0001475  82.1508 277.9652 15.08832397 47883,6917.904,95.438,540.789,538.748,0.0
52103.0,STARLINK-3705,PAYLOAD,2023-01-20 03:23:41,15.08831897,0.0001811999999999,53.2176,177.1898,79.78,280.3397,4.4211e-05,4.15e-06,0.0,0 STARLINK-3705,1 52103U 22029R   23020.14145694  .00000415  00000-0  44211-4 0  9993,2 52103  53.2176 177.1898 0001812  79.7800 280.3397 15.08831897 47992,6917.905,95.438,541.024,538.5169999999999,0.0
52103.0,STARLINK-3705,PAYLOAD,2023-01-20 16:06:48,15.08817483,0.0001453999999999,53.2169,174.8119,82.4442,277.6715,-0.00015827,-2.804e-05,0.0,0 STARLINK-3705,1 52103U 22029R   23020.67139680 -.00002804  00000-0 -15827-3 0  9995,2 52103  53.2169 174.8119 0001454  82.4442 277.6715 15.08817483 48077,6917.9490000000005,95.439,540.82,538.808,0.0
52103.0,STARLINK-3705,PAYLOAD,2023-01-21 03:14:29,15.08836986,0.0001575,53.2181,172.7297,81.0356,279.0814,0.00010664,1.409e-05,0.0,0 STARLINK-3705,1 52103U 22029R   23021.13505955  .00001409  00000-0  10664-3 0  9991,2 52103  53.2181 172.7297 0001575  81.0356 279.0814 15.08836986 48141,6917.89,95.438,540.844,538.665,0.0
